[{"OBJECT_NAME":"ICEYE-X31","OBJECT_ID":"2023-174AJ","EPOCH":"2026-03-09T23:06:20.433600","MEAN_MOTION":15.30950809,"ECCENTRICITY":0.00015021,"INCLINATION":97.3851,"RA_OF_ASC_NODE":144.9524,"ARG_OF_PERICENTER":332.6589,"MEAN_ANOMALY":27.4572,"EPHEMERIS_TYPE":0,"CLASSIFICATION_TYPE":"U","NORAD_CAT_ID":58288,"ELEMENT_SET_NO":999,"REV_AT_EPOCH":12955,"BSTAR":0.00066288467,"MEAN_MOTION_DOT":0.00019777,"MEAN_MOTION_DDOT":0},{"OBJECT_NAME":"STARLINK-35869","OBJECT_ID":"2025-254F","EPOCH":"2026-03-09T17:00:19.734336","MEAN_MOTION":15.30203013,"ECCENTRICITY":0.00010242,"INCLINATION":53.1608,"RA_OF_ASC_NODE":232.0034,"ARG_OF_PERICENTER":79.2346,"MEAN_ANOMALY":280.877,"EPHEMERIS_TYPE":0,"CLASSIFICATION_TYPE":"U","NORAD_CAT_ID":66353,"ELEMENT_SET_NO":999,"REV_AT_EPOCH":1898,"BSTAR":0.00083327588,"MEAN_MOTION_DOT":0.00024403,"MEAN_MOTION_DDOT":0}]
